[
    {
        "Altitude(m)": 704098.4544519356,
        "Argument of Periapsis(deg)": 0.010251109067964361,
        "Eccentricity": 0.0,
        "Inclination(deg)": 45.0,
        "Latitude(deg)": 29.002775608278487,
        "Longitude(deg)": -7.230801367976642,
        "Mean Anomaly(deg)": 43.107194982732736,
        "RAAN(deg)": 59.99032325268762,
        "Satellite Name": "Constellation 1 266",
        "Satellite Number": 266,
        "Semi-Major Axis(m)": 7083131.272910544,
        "Time(s)": 171
    },
    {
        "Altitude(m)": 704104.0630057086,
        "Argument of Periapsis(deg)": 0.010311057074209765,
        "Eccentricity": 0.0,
        "Inclination(deg)": 45.0,
        "Latitude(deg)": 29.038747538577464,
        "Longitude(deg)": -7.178930498431856,
        "Mean Anomaly(deg)": 43.16789612298263,
        "RAAN(deg)": 59.99026666352204,
        "Satellite Name": "Constellation 1 266",
        "Satellite Number": 266,
        "Semi-Major Axis(m)": 7083131.272910544,
        "Time(s)": 172
    },
    {
        "Altitude(m)": 704109.6769424686,
        "Argument of Periapsis(deg)": 0.010371005080455171,
        "Eccentricity": 0.0,
        "Inclination(deg)": 45.0,
        "Latitude(deg)": 29.074695939176006,
        "Longitude(deg)": -7.1270208237607395,
        "Mean Anomaly(deg)": 43.22859726323253,
        "RAAN(deg)": 59.99021007435647,
        "Satellite Name": "Constellation 1 266",
        "Satellite Number": 266,
        "Semi-Major Axis(m)": 7083131.272910544,
        "Time(s)": 173
    },
    {
        "Altitude(m)": 704115.2962230763,
        "Argument of Periapsis(deg)": 0.010430953086700577,
        "Eccentricity": 0.0,
        "Inclination(deg)": 45.0,
        "Latitude(deg)": 29.110620759586073,
        "Longitude(deg)": -7.075072285015595,
        "Mean Anomaly(deg)": 43.289298403482434,
        "RAAN(deg)": 59.990153485190895,
        "Satellite Name": "Constellation 1 266",
        "Satellite Number": 266,
        "Semi-Major Axis(m)": 7083131.272910544,
        "Time(s)": 174
    },
    {
        "Altitude(m)": 704120.9208083849,
        "Argument of Periapsis(deg)": 0.010490901092945983,
        "Eccentricity": 0.0,
        "Inclination(deg)": 45.0,
        "Latitude(deg)": 29.146521949247973,
        "Longitude(deg)": -7.023084823290574,
        "Mean Anomaly(deg)": 43.34999954373233,
        "RAAN(deg)": 59.990096896025335,
        "Satellite Name": "Constellation 1 266",
        "Satellite Number": 266,
        "Semi-Major Axis(m)": 7083131.272910544,
        "Time(s)": 175
    },
    {
        "Altitude(m)": 704126.5506592201,
        "Argument of Periapsis(deg)": 0.010550849099191389,
        "Eccentricity": 0.0,
        "Inclination(deg)": 45.0,
        "Latitude(deg)": 29.182399457530195,
        "Longitude(deg)": -6.9710583797224235,
        "Mean Anomaly(deg)": 43.41070068398222,
        "RAAN(deg)": 59.99004030685976,
        "Satellite Name": "Constellation 1 266",
        "Satellite Number": 266,
        "Semi-Major Axis(m)": 7083131.272910544,
        "Time(s)": 176
    },
    {
        "Altitude(m)": 704132.1857364231,
        "Argument of Periapsis(deg)": 0.010610797105436795,
        "Eccentricity": 0.0,
        "Inclination(deg)": 45.0,
        "Latitude(deg)": 29.218253233729392,
        "Longitude(deg)": -6.918992895490878,
        "Mean Anomaly(deg)": 43.47140182423213,
        "RAAN(deg)": 59.98998371769419,
        "Satellite Name": "Constellation 1 266",
        "Satellite Number": 266,
        "Semi-Major Axis(m)": 7083131.272910544,
        "Time(s)": 177
    },
    {
        "Altitude(m)": 704137.8260008091,
        "Argument of Periapsis(deg)": 0.0106707451116822,
        "Eccentricity": 0.0,
        "Inclination(deg)": 45.0,
        "Latitude(deg)": 29.25408322707003,
        "Longitude(deg)": -6.866888479916323,
        "Mean Anomaly(deg)": 43.53210296448203,
        "RAAN(deg)": 59.98992712852862,
        "Satellite Name": "Constellation 1 266",
        "Satellite Number": 266,
        "Semi-Major Axis(m)": 7083131.272910544,
        "Time(s)": 178
    },
    {
        "Altitude(m)": 704143.4714131885,
        "Argument of Periapsis(deg)": 0.010730693117927606,
        "Eccentricity": 0.0,
        "Inclination(deg)": 45.0,
        "Latitude(deg)": 29.289889386705536,
        "Longitude(deg)": -6.814744738072465,
        "Mean Anomaly(deg)": 43.592804104731925,
        "RAAN(deg)": 59.98987053936306,
        "Satellite Name": "Constellation 1 266",
        "Satellite Number": 266,
        "Semi-Major Axis(m)": 7083131.272910544,
        "Time(s)": 179
    },
    {
        "Altitude(m)": 704149.1219343605,
        "Argument of Periapsis(deg)": 0.01079064112417301,
        "Eccentricity": 0.0,
        "Inclination(deg)": 45.0,
        "Latitude(deg)": 29.325671661716488,
        "Longitude(deg)": -6.762561779368877,
        "Mean Anomaly(deg)": 43.65350524498183,
        "RAAN(deg)": 59.98981395019749,
        "Satellite Name": "Constellation 1 266",
        "Satellite Number": 266,
        "Semi-Major Axis(m)": 7083131.272910544,
        "Time(s)": 180
    },
    {
        "Altitude(m)": 704154.7775251241,
        "Argument of Periapsis(deg)": 0.010850589130418416,
        "Eccentricity": 0.0,
        "Inclination(deg)": 45.0,
        "Latitude(deg)": 29.361430001111724,
        "Longitude(deg)": -6.710339545163613,
        "Mean Anomaly(deg)": 43.714206385231726,
        "RAAN(deg)": 59.98975736103191,
        "Satellite Name": "Constellation 1 266",
        "Satellite Number": 266,
        "Semi-Major Axis(m)": 7083131.272910544,
        "Time(s)": 181
    },
    {
        "Altitude(m)": 704160.4381462593,
        "Argument of Periapsis(deg)": 0.01091053713666382,
        "Eccentricity": 0.0,
        "Inclination(deg)": 45.0,
        "Latitude(deg)": 29.397164353827964,
        "Longitude(deg)": -6.658077976860825,
        "Mean Anomaly(deg)": 43.77490752548162,
        "RAAN(deg)": 59.98970077186634,
        "Satellite Name": "Constellation 1 266",
        "Satellite Number": 266,
        "Semi-Major Axis(m)": 7083131.272910544,
        "Time(s)": 182
    },
    {
        "Altitude(m)": 704166.1037585457,
        "Argument of Periapsis(deg)": 0.010970485142909228,
        "Eccentricity": 0.0,
        "Inclination(deg)": 45.0,
        "Latitude(deg)": 29.432874668729855,
        "Longitude(deg)": -6.605777015911316,
        "Mean Anomaly(deg)": 43.83560866573153,
        "RAAN(deg)": 59.989644182700786,
        "Satellite Name": "Constellation 1 266",
        "Satellite Number": 266,
        "Semi-Major Axis(m)": 7083131.272910544,
        "Time(s)": 183
    },
    {
        "Altitude(m)": 704171.77432275,
        "Argument of Periapsis(deg)": 0.011030433149154634,
        "Eccentricity": 0.0,
        "Inclination(deg)": 45.0,
        "Latitude(deg)": 29.4685608946099,
        "Longitude(deg)": -6.5534366038133856,
        "Mean Anomaly(deg)": 43.896309805981424,
        "RAAN(deg)": 59.98958759353521,
        "Satellite Name": "Constellation 1 266",
        "Satellite Number": 266,
        "Semi-Major Axis(m)": 7083131.272910544,
        "Time(s)": 184
    },
    {
        "Altitude(m)": 704177.4497996353,
        "Argument of Periapsis(deg)": 0.01109038115540004,
        "Eccentricity": 0.0,
        "Inclination(deg)": 45.0,
        "Latitude(deg)": 29.504222980187983,
        "Longitude(deg)": -6.501056850210192,
        "Mean Anomaly(deg)": 43.957010946231314,
        "RAAN(deg)": 59.98953100436964,
        "Satellite Name": "Constellation 1 266",
        "Satellite Number": 266,
        "Semi-Major Axis(m)": 7083131.272910544,
        "Time(s)": 185
    },
    {
        "Altitude(m)": 704183.130149954,
        "Argument of Periapsis(deg)": 0.011150329161645444,
        "Eccentricity": 0.0,
        "Inclination(deg)": 45.0,
        "Latitude(deg)": 29.539860874112804,
        "Longitude(deg)": -6.448637360502364,
        "Mean Anomaly(deg)": 44.017712086481225,
        "RAAN(deg)": 59.989474415204064,
        "Satellite Name": "Constellation 1 266",
        "Satellite Number": 266,
        "Semi-Major Axis(m)": 7083131.272910544,
        "Time(s)": 186
    },
    {
        "Altitude(m)": 704188.815334449,
        "Argument of Periapsis(deg)": 0.01121027716789085,
        "Eccentricity": 0.0,
        "Inclination(deg)": 45.0,
        "Latitude(deg)": 29.575474524959745,
        "Longitude(deg)": -6.396178244430947,
        "Mean Anomaly(deg)": 44.078413226731136,
        "RAAN(deg)": 59.989417826038505,
        "Satellite Name": "Constellation 1 266",
        "Satellite Number": 266,
        "Semi-Major Axis(m)": 7083131.272910544,
        "Time(s)": 187
    },
    {
        "Altitude(m)": 704194.5053138616,
        "Argument of Periapsis(deg)": 0.011270225174136258,
        "Eccentricity": 0.0,
        "Inclination(deg)": 45.0,
        "Latitude(deg)": 29.611063881232166,
        "Longitude(deg)": -6.343679443689649,
        "Mean Anomaly(deg)": 44.13911436698102,
        "RAAN(deg)": 59.98936123687293,
        "Satellite Name": "Constellation 1 266",
        "Satellite Number": 266,
        "Semi-Major Axis(m)": 7083131.272910544,
        "Time(s)": 188
    },
    {
        "Altitude(m)": 704200.2000489209,
        "Argument of Periapsis(deg)": 0.011330173180381662,
        "Eccentricity": 0.0,
        "Inclination(deg)": 45.0,
        "Latitude(deg)": 29.64662889136109,
        "Longitude(deg)": -6.291140900022868,
        "Mean Anomaly(deg)": 44.19981550723092,
        "RAAN(deg)": 59.98930464770736,
        "Satellite Name": "Constellation 1 266",
        "Satellite Number": 266,
        "Semi-Major Axis(m)": 7083131.272910544,
        "Time(s)": 189
    }
]